[{"OBJECT_NAME":"HULIANWANG DIGUI-65","OBJECT_ID":"2025-174H","EPOCH":"2026-03-05T14:22:45.348672","MEAN_MOTION":13.24422355,"ECCENTRICITY":0.00012315,"INCLINATION":86.4843,"RA_OF_ASC_NODE":286.8992,"ARG_OF_PERICENTER":88.3473,"MEAN_ANOMALY":271.7802,"EPHEMERIS_TYPE":0,"CLASSIFICATION_TYPE":"U","NORAD_CAT_ID":65171,"ELEMENT_SET_NO":999,"REV_AT_EPOCH":2707,"BSTAR":8.3454165e-5,"MEAN_MOTION_DOT":5.0e-7,"MEAN_MOTION_DDOT":0},{"OBJECT_NAME":"HULIANWANG DIGUI-66","OBJECT_ID":"2025-174J","EPOCH":"2026-03-05T14:11:54.787776","MEAN_MOTION":13.24422022,"ECCENTRICITY":0.00012742,"INCLINATION":86.4879,"RA_OF_ASC_NODE":286.968,"ARG_OF_PERICENTER":90.4208,"MEAN_ANOMALY":269.7072,"EPHEMERIS_TYPE":0,"CLASSIFICATION_TYPE":"U","NORAD_CAT_ID":65172,"ELEMENT_SET_NO":999,"REV_AT_EPOCH":2707,"BSTAR":0.00010819939,"MEAN_MOTION_DOT":6.1e-7,"MEAN_MOTION_DDOT":0},{"OBJECT_NAME":"HULIANWANG DIGUI-67","OBJECT_ID":"2025-174K","EPOCH":"2026-03-05T14:33:42.950304","MEAN_MOTION":13.24421645,"ECCENTRICITY":0.00012649,"INCLINATION":86.489,"RA_OF_ASC_NODE":286.9965,"ARG_OF_PERICENTER":88.7956,"MEAN_ANOMALY":271.3323,"EPHEMERIS_TYPE":0,"CLASSIFICATION_TYPE":"U","NORAD_CAT_ID":65173,"ELEMENT_SET_NO":999,"REV_AT_EPOCH":2704,"BSTAR":0.00010700815,"MEAN_MOTION_DOT":6.1e-7,"MEAN_MOTION_DDOT":0},{"OBJECT_NAME":"HULIANWANG DIGUI-68","OBJECT_ID":"2025-178A","EPOCH":"2026-03-05T15:06:09.020448","MEAN_MOTION":13.24423856,"ECCENTRICITY":0.00020275,"INCLINATION":86.4941,"RA_OF_ASC_NODE":48.4663,"ARG_OF_PERICENTER":79.7332,"MEAN_ANOMALY":280.403,"EPHEMERIS_TYPE":0,"CLASSIFICATION_TYPE":"U","NORAD_CAT_ID":65228,"ELEMENT_SET_NO":999,"REV_AT_EPOCH":2660,"BSTAR":2.316299e-6,"MEAN_MOTION_DOT":1.6e-7,"MEAN_MOTION_DDOT":0},{"OBJECT_NAME":"HULIANWANG DIGUI-69","OBJECT_ID":"2025-178B","EPOCH":"2026-03-05T14:55:43.243392","MEAN_MOTION":13.24417713,"ECCENTRICITY":0.00019631,"INCLINATION":86.4962,"RA_OF_ASC_NODE":48.5038,"ARG_OF_PERICENTER":81.1057,"MEAN_ANOMALY":279.03,"EPHEMERIS_TYPE":0,"CLASSIFICATION_TYPE":"U","NORAD_CAT_ID":65229,"ELEMENT_SET_NO":999,"REV_AT_EPOCH":2660,"BSTAR":1.2960908e-5,"MEAN_MOTION_DOT":2.0e-7,"MEAN_MOTION_DDOT":0},{"OBJECT_NAME":"HULIANWANG DIGUI-70","OBJECT_ID":"2025-178C","EPOCH":"2026-03-05T14:44:46.714848","MEAN_MOTION":13.24418668,"ECCENTRICITY":0.00020732,"INCLINATION":86.4901,"RA_OF_ASC_NODE":48.375,"ARG_OF_PERICENTER":79.6746,"MEAN_ANOMALY":280.4622,"EPHEMERIS_TYPE":0,"CLASSIFICATION_TYPE":"U","NORAD_CAT_ID":65230,"ELEMENT_SET_NO":999,"REV_AT_EPOCH":2660,"BSTAR":3.5040081e-5,"MEAN_MOTION_DOT":3.0e-7,"MEAN_MOTION_DDOT":0},{"OBJECT_NAME":"HULIANWANG DIGUI-71","OBJECT_ID":"2025-178D","EPOCH":"2026-03-05T14:33:51.808896","MEAN_MOTION":13.24419571,"ECCENTRICITY":0.00020166,"INCLINATION":86.4959,"RA_OF_ASC_NODE":48.492,"ARG_OF_PERICENTER":80.8433,"MEAN_ANOMALY":279.2929,"EPHEMERIS_TYPE":0,"CLASSIFICATION_TYPE":"U","NORAD_CAT_ID":65231,"ELEMENT_SET_NO":999,"REV_AT_EPOCH":2660,"BSTAR":6.432204e-5,"MEAN_MOTION_DOT":4.2e-7,"MEAN_MOTION_DDOT":0},{"OBJECT_NAME":"HULIANWANG DIGUI-72","OBJECT_ID":"2025-178E","EPOCH":"2026-03-05T14:22:55.402176","MEAN_MOTION":13.24419995,"ECCENTRICITY":0.00020249,"INCLINATION":86.4942,"RA_OF_ASC_NODE":48.4525,"ARG_OF_PERICENTER":81.7743,"MEAN_ANOMALY":278.362,"EPHEMERIS_TYPE":0,"CLASSIFICATION_TYPE":"U","NORAD_CAT_ID":65232,"ELEMENT_SET_NO":999,"REV_AT_EPOCH":2660,"BSTAR":6.094809e-5,"MEAN_MOTION_DOT":4.1e-7,"MEAN_MOTION_DDOT":0},{"OBJECT_NAME":"HULIANWANG DIGUI-73","OBJECT_ID":"2025-187A","EPOCH":"2026-03-05T14:45:45.162720","MEAN_MOTION":13.29342446,"ECCENTRICITY":0.00010468,"INCLINATION":50.0037,"RA_OF_ASC_NODE":217.3336,"ARG_OF_PERICENTER":139.7029,"MEAN_ANOMALY":220.3921,"EPHEMERIS_TYPE":0,"CLASSIFICATION_TYPE":"U","NORAD_CAT_ID":65305,"ELEMENT_SET_NO":999,"REV_AT_EPOCH":2592,"BSTAR":4.3275417e-5,"MEAN_MOTION_DOT":-1.04e-6,"MEAN_MOTION_DDOT":0},{"OBJECT_NAME":"HULIANWANG DIGUI-74","OBJECT_ID":"2025-187B","EPOCH":"2026-03-05T14:21:40.139136","MEAN_MOTION":13.29342959,"ECCENTRICITY":0.00010448,"INCLINATION":50.008,"RA_OF_ASC_NODE":217.313,"ARG_OF_PERICENTER":140.4798,"MEAN_ANOMALY":219.6151,"EPHEMERIS_TYPE":0,"CLASSIFICATION_TYPE":"U","NORAD_CAT_ID":65306,"ELEMENT_SET_NO":999,"REV_AT_EPOCH":2592,"BSTAR":3.2327409e-5,"MEAN_MOTION_DOT":-1.09e-6,"MEAN_MOTION_DDOT":0},{"OBJECT_NAME":"HULIANWANG DIGUI-75","OBJECT_ID":"2025-187C","EPOCH":"2026-03-05T13:57:42.043104","MEAN_MOTION":13.2934195,"ECCENTRICITY":0.00010414,"INCLINATION":50.0072,"RA_OF_ASC_NODE":217.2145,"ARG_OF_PERICENTER":138.5647,"MEAN_ANOMALY":221.5304,"EPHEMERIS_TYPE":0,"CLASSIFICATION_TYPE":"U","NORAD_CAT_ID":65307,"ELEMENT_SET_NO":999,"REV_AT_EPOCH":2592,"BSTAR":3.2283964e-5,"MEAN_MOTION_DOT":-1.09e-6,"MEAN_MOTION_DDOT":0},{"OBJECT_NAME":"HULIANWANG DIGUI-76","OBJECT_ID":"2025-187D","EPOCH":"2026-03-05T15:22:10.452864","MEAN_MOTION":13.29339304,"ECCENTRICITY":0.00010402,"INCLINATION":49.9996,"RA_OF_ASC_NODE":217.3976,"ARG_OF_PERICENTER":136.7252,"MEAN_ANOMALY":223.3702,"EPHEMERIS_TYPE":0,"CLASSIFICATION_TYPE":"U","NORAD_CAT_ID":65308,"ELEMENT_SET_NO":999,"REV_AT_EPOCH":2592,"BSTAR":6.8296821e-5,"MEAN_MOTION_DOT":-9.2e-7,"MEAN_MOTION_DDOT":0},{"OBJECT_NAME":"HULIANWANG DIGUI-77","OBJECT_ID":"2025-187E","EPOCH":"2026-03-05T15:09:55.978560","MEAN_MOTION":13.2934119,"ECCENTRICITY":0.00010762,"INCLINATION":50.003,"RA_OF_ASC_NODE":217.4075,"ARG_OF_PERICENTER":137.2565,"MEAN_ANOMALY":222.8391,"EPHEMERIS_TYPE":0,"CLASSIFICATION_TYPE":"U","NORAD_CAT_ID":65309,"ELEMENT_SET_NO":999,"REV_AT_EPOCH":2592,"BSTAR":5.5818481e-5,"MEAN_MOTION_DOT":-9.8e-7,"MEAN_MOTION_DDOT":0},{"OBJECT_NAME":"HULIANWANG DIGUI-78","OBJECT_ID":"2025-187F","EPOCH":"2026-03-05T14:09:47.168928","MEAN_MOTION":13.29341682,"ECCENTRICITY":0.0001027,"INCLINATION":50.0096,"RA_OF_ASC_NODE":217.2961,"ARG_OF_PERICENTER":140.4159,"MEAN_ANOMALY":219.6789,"EPHEMERIS_TYPE":0,"CLASSIFICATION_TYPE":"U","NORAD_CAT_ID":65310,"ELEMENT_SET_NO":999,"REV_AT_EPOCH":2592,"BSTAR":4.0649187e-5,"MEAN_MOTION_DOT":-1.05e-6,"MEAN_MOTION_DDOT":0},{"OBJECT_NAME":"HULIANWANG DIGUI-79","OBJECT_ID":"2025-187G","EPOCH":"2026-03-05T13:45:30.389760","MEAN_MOTION":13.29343083,"ECCENTRICITY":0.00010341,"INCLINATION":50.0025,"RA_OF_ASC_NODE":217.7551,"ARG_OF_PERICENTER":136.9468,"MEAN_ANOMALY":223.1485,"EPHEMERIS_TYPE":0,"CLASSIFICATION_TYPE":"U","NORAD_CAT_ID":65311,"ELEMENT_SET_NO":999,"REV_AT_EPOCH":2591,"BSTAR":4.2860409e-5,"MEAN_MOTION_DOT":-1.04e-6,"MEAN_MOTION_DDOT":0},{"OBJECT_NAME":"HULIANWANG DIGUI-80","OBJECT_ID":"2025-187H","EPOCH":"2026-03-05T14:57:51.648480","MEAN_MOTION":13.29341296,"ECCENTRICITY":0.00010637,"INCLINATION":50.0016,"RA_OF_ASC_NODE":217.3424,"ARG_OF_PERICENTER":137.2546,"MEAN_ANOMALY":222.8409,"EPHEMERIS_TYPE":0,"CLASSIFICATION_TYPE":"U","NORAD_CAT_ID":65312,"ELEMENT_SET_NO":999,"REV_AT_EPOCH":2592,"BSTAR":7.9414087e-5,"MEAN_MOTION_DOT":-8.7e-7,"MEAN_MOTION_DDOT":0}]
