HULIANWANG DIGUI-65     
1 65171U 25174H   26064.59913598  .00000050  00000+0  83454-4 0  9998
2 65171  86.4843 286.8992 0001231  88.3473 271.7802 13.24422355 27073
HULIANWANG DIGUI-66     
1 65172U 25174J   26064.59160634  .00000061  00000+0  10820-3 0  9992
2 65172  86.4879 286.9680 0001274  90.4208 269.7072 13.24422022 27072
HULIANWANG DIGUI-67     
1 65173U 25174K   26064.60674711  .00000061  00000+0  10701-3 0  9999
2 65173  86.4890 286.9965 0001264  88.7956 271.3323 13.24421645 27046
HULIANWANG DIGUI-68     
1 65228U 25178A   26064.62927107  .00000016  00000+0  23163-5 0  9994
2 65228  86.4941  48.4663 0002027  79.7332 280.4030 13.24423856 26609
HULIANWANG DIGUI-69     
1 65229U 25178B   26064.62202828  .00000020  00000+0  12961-4 0  9999
2 65229  86.4962  48.5038 0001963  81.1057 279.0300 13.24417713 26608
HULIANWANG DIGUI-70     
1 65230U 25178C   26064.61442957  .00000030  00000+0  35040-4 0  9993
2 65230  86.4901  48.3750 0002073  79.6746 280.4622 13.24418668 26605
HULIANWANG DIGUI-71     
1 65231U 25178D   26064.60684964  .00000042  00000+0  64322-4 0  9997
2 65231  86.4959  48.4920 0002016  80.8433 279.2929 13.24419571 26603
HULIANWANG DIGUI-72     
1 65232U 25178E   26064.59925234  .00000041  00000+0  60948-4 0  9993
2 65232  86.4942  48.4525 0002024  81.7743 278.3620 13.24419995 26608
HULIANWANG DIGUI-73     
1 65305U 25187A   26064.61510605 -.00000104  00000+0  43275-4 0  9994
2 65305  50.0037 217.3336 0001046 139.7029 220.3921 13.29342446 25928
HULIANWANG DIGUI-74     
1 65306U 25187B   26064.59838124 -.00000109  00000+0  32327-4 0  9992
2 65306  50.0080 217.3130 0001044 140.4798 219.6151 13.29342959 25924
HULIANWANG DIGUI-75     
1 65307U 25187C   26064.58173661 -.00000109  00000+0  32284-4 0  9992
2 65307  50.0072 217.2145 0001041 138.5647 221.5304 13.29341950 25921
HULIANWANG DIGUI-76     
1 65308U 25187D   26064.64039876 -.00000092  00000+0  68297-4 0  9993
2 65308  49.9996 217.3976 0001040 136.7252 223.3702 13.29339304 25920
HULIANWANG DIGUI-77     
1 65309U 25187E   26064.63189790 -.00000098  00000+0  55818-4 0  9995
2 65309  50.0030 217.4075 0001076 137.2565 222.8391 13.29341190 25920
HULIANWANG DIGUI-78     
1 65310U 25187F   26064.59012927 -.00000105  00000+0  40649-4 0  9994
2 65310  50.0096 217.2961 0001027 140.4159 219.6789 13.29341682 25928
HULIANWANG DIGUI-79     
1 65311U 25187G   26064.57326840 -.00000104  00000+0  42860-4 0  9991
2 65311  50.0025 217.7551 0001034 136.9468 223.1485 13.29343083 25911
HULIANWANG DIGUI-80     
1 65312U 25187H   26064.62351445 -.00000087  00000+0  79414-4 0  9992
2 65312  50.0016 217.3424 0001063 137.2546 222.8409 13.29341296 25927
